NORAD_CAT_ID,OBJECT_NAME,OBJECT_TYPE,EPOCH,MEAN_MOTION,ECCENTRICITY,INCLINATION,RA_OF_ASC_NODE,ARG_OF_PERICENTER,MEAN_ANOMALY,BSTAR,MEAN_MOTION_DOT,MEAN_MOTION_DDOT,TLE_LINE0,TLE_LINE1,TLE_LINE2,SEMIMAJOR_AXIS,PERIOD,APOGEE,PERIGEE,DECAYED
53291.0,STARLINK-4166,PAYLOAD,2022-10-21 22:00:00,15.37835158,0.0001585,53.2173,323.1912,38.4244,274.6459,-0.033044,-0.0113855,0.0,0 STARLINK-4166,1 53291U 22086BB  22294.91667824 -.01138550  00000-0 -33044-1 0  9990,2 53291  53.2173 323.1912 0001585  38.4244 274.6459 15.37835158  1305,6830.649,93.638,453.597,451.432,0.0
53291.0,STARLINK-4166,PAYLOAD,2022-10-22 06:00:00,15.37023159,0.0001641,53.2177,321.6283,35.204,323.8039,-0.034013,-0.01141056,0.0,0 STARLINK-4166,1 53291U 22086BB  22295.25001157 -.01141056  00000-0 -34013-1 0  9991,2 53291  53.2177 321.6283 0001641  35.2040 323.8039 15.37023159 14726,6833.055,93.688,456.041,453.798,0.0
53291.0,STARLINK-4166,PAYLOAD,2022-10-22 14:00:01,15.36218035,0.0001714,53.2164,320.0686,35.3506,8.6122,-0.035266,-0.01151579,0.0,0 STARLINK-4166,1 53291U 22086BB  22295.58334491 -.01151579  00000-0 -35266-1 0  9999,2 53291  53.2164 320.0686 0001714  35.3506   8.6122 15.36218035  1300,6835.441999999999,93.737,458.479,456.135,0.0
53291.0,STARLINK-4166,PAYLOAD,2022-10-22 22:00:00,15.35393645,0.0001785,53.2171,318.5069,37.8317,50.121,-0.03576,-0.01138286,0.0,0 STARLINK-4166,1 53291U 22086BB  22295.91667824 -.01138286  00000-0 -35760-1 0  9994,2 53291  53.2171 318.5069 0001785  37.8317  50.1210 15.35393645  1300,6837.889,93.787,460.974,458.533,0.0
53291.0,STARLINK-4166,PAYLOAD,2022-10-23 08:00:01,15.34378608,0.0001539,53.2171,316.5615,53.3536,178.2647,-0.0370459999999999,-0.01141072,0.0,0 STARLINK-4166,1 53291U 22086BB  22296.33335648 -.01141072  00000-0 -37046-1 0  9993,2 53291  53.2171 316.5615 0001539  53.3536 178.2647 15.34378608 14882,6840.904,93.849,463.822,461.716,0.0
53291.0,STARLINK-4166,PAYLOAD,2022-10-23 14:00:01,15.33800171,0.0001779,53.2162,315.3959,39.3287,133.6378,-0.03927,-0.01183337,0.0,0 STARLINK-4166,1 53291U 22086BB  22296.58334491 -.01183337  00000-0 -39270-1 0  9996,2 53291  53.2162 315.3959 0001779  39.3287 133.6378 15.33800171  1306,6842.624,93.884,465.706,463.271,0.0
53291.0,STARLINK-4166,PAYLOAD,2022-10-23 22:00:00,15.32954087,0.0001751999999999,53.2166,313.8403,38.5375,175.4953,-0.038715,-0.01139746,0.0,0 STARLINK-4166,1 53291U 22086BB  22296.91667824 -.01139746  00000-0 -38715-1 0  9990,2 53291  53.2166 313.8403 0001752  38.5375 175.4953 15.32954087  1305,6845.141,93.936,468.205,465.807,0.0
53291.0,STARLINK-4166,PAYLOAD,2022-10-24 06:00:00,15.32149862,0.0001527,53.2167,312.2892,53.0608,201.0382,-0.040188,-0.01152137,0.0,0 STARLINK-4166,1 53291U 22086BB  22297.25001157 -.01152137  00000-0 -40188-1 0  9995,2 53291  53.2167 312.2892 0001527  53.0608 201.0382 15.32149862 15025,6847.536,93.986,470.447,468.356,0.0
53291.0,STARLINK-4166,PAYLOAD,2022-10-24 14:00:01,15.31335232,0.0001551999999999,53.2162,310.7402,41.9024,251.2901,-0.0411949999999999,-0.01151203,0.0,0 STARLINK-4166,1 53291U 22086BB  22297.58334491 -.01151203  00000-0 -41195-1 0  9993,2 53291  53.2162 310.7402 0001552  41.9024 251.2901 15.31335232  1303,6849.965,94.036,472.893,470.766,0.0
53291.0,STARLINK-4166,PAYLOAD,2022-10-24 22:00:00,15.30509278,0.0001537,53.2173,309.1897,40.064,291.2516,-0.041585,-0.01134047,0.0,0 STARLINK-4166,1 53291U 22086BB  22297.91667824 -.01134047  00000-0 -41585-1 0  9999,2 53291  53.2173 309.1897 0001537  40.0640 291.2516 15.30509278  1300,6852.429,94.086,475.347,473.241,0.0
53291.0,STARLINK-4166,PAYLOAD,2022-10-25 06:00:00,15.29703192,0.0001513,53.2168,307.6452,44.7604,323.6887,-0.043093,-0.01144972,0.0,0 STARLINK-4166,1 53291U 22086BB  22298.25001157 -.01144972  00000-0 -43093-1 0  9992,2 53291  53.2168 307.6452 0001513  44.7604 323.6887 15.29703192 15180,6854.8359999999975,94.136,477.73800000000006,475.664,0.0
53291.0,STARLINK-4166,PAYLOAD,2022-10-25 14:00:01,15.28888763,0.0001720999999999,53.2164,306.1017,35.5025,9.1064,-0.044121,-0.01143275,0.0,0 STARLINK-4166,1 53291U 22086BB  22298.58334491 -.01143275  00000-0 -44121-1 0  9996,2 53291  53.2164 306.1017 0001721  35.5025   9.1064 15.28888763  1302,6857.27,94.186,480.315,477.955,0.0
53291.0,STARLINK-4166,PAYLOAD,2022-10-25 22:00:01,15.28068857,0.0001710999999999,53.2173,304.5571,37.3384,42.5208,-0.044916,-0.01135544,0.0,0 STARLINK-4166,1 53291U 22086BB  22298.91668981 -.01135544  00000-0 -44916-1 0  9999,2 53291  53.2173 304.5571 0001711  37.3384  42.5208 15.28068857  1301,6859.723000000001,94.237,482.761,480.414,0.0
53291.0,STARLINK-4166,PAYLOAD,2022-10-26 06:00:00,15.27274018,0.0001743,53.2166,303.0188,41.5842,72.4052,-0.047155,-0.01176687,0.0,0 STARLINK-4166,1 53291U 22086BB  22299.25001157 -.01176687  00000-0 -47155-1 0  9994,2 53291  53.2166 303.0188 0001743  41.5842  72.4052 15.27274018 15336,6862.102,94.286,485.164,482.771,0.0
53291.0,STARLINK-4166,PAYLOAD,2022-10-26 14:00:01,15.264418300000004,0.0001811999999999,53.2171,301.4801,40.6603,106.5646,-0.0471829999999999,-0.01134975,0.0,0 STARLINK-4166,1 53291U 22086BB  22299.58334491 -.01134975  00000-0 -47183-1 0  9995,2 53291  53.2171 301.4801 0001812  40.6603 106.5646 15.26441830  1305,6864.596,94.337,487.705,485.217,0.0
53291.0,STARLINK-4166,PAYLOAD,2022-10-26 22:00:00,15.2562904,0.000174,53.2172,299.9421,44.9808,134.4933,-0.04848,-0.01152636,0.0,0 STARLINK-4166,1 53291U 22086BB  22299.91667824 -.01152636  00000-0 -48480-1 0  9996,2 53291  53.2172 299.9421 0001740  44.9808 134.4933 15.25629040  1308,6867.034000000002,94.387,490.094,487.704,0.0
53291.0,STARLINK-4166,PAYLOAD,2022-10-27 14:00:01,15.2401111,0.0001740999999999,53.2163,296.8768,40.364,200.7313,-0.051511,-0.01165356,0.0,0 STARLINK-4166,1 53291U 22086BB  22300.58335648 -.01165356  00000-0 -51511-1 0  9990,2 53291  53.2163 296.8768 0001741  40.3640 200.7313 15.24011110 15534,6871.893,94.488,494.955,492.562,0.0
53291.0,STARLINK-4166,PAYLOAD,2022-10-27 22:00:00,15.23186095,0.0001636999999999,53.2173,295.344,45.4297,224.9237,-0.052014,-0.01149333,0.0,0 STARLINK-4166,1 53291U 22086BB  22300.91667824 -.01149333  00000-0 -52014-1 0  9997,2 53291  53.2173 295.3440 0001637  45.4297 224.9237 15.23186095  1301,6874.375,94.539,497.365,495.114,0.0
53291.0,STARLINK-4166,PAYLOAD,2022-10-28 14:00:01,15.21572236,0.0001701,53.2165,292.2901,36.7711,289.3349,-0.055584,-0.01169082,0.0,0 STARLINK-4166,1 53291U 22086BB  22301.58335648 -.01169082  00000-0 -55584-1 0  9995,2 53291  53.2165 292.2901 0001701  36.7711 289.3349 15.21572236  1309,6879.235,94.639,502.27,499.93,0.0
53291.0,STARLINK-4166,PAYLOAD,2022-10-28 22:00:01,15.20743351,0.0001705,53.2173,290.7633,36.4093,316.0858,-0.055771,-0.01146537,0.0,0 STARLINK-4166,1 53291U 22086BB  22301.91668981 -.01146537  00000-0 -55771-1 0  9999,2 53291  53.2173 290.7633 0001705  36.4093 316.0858 15.20743351  1307,6881.734,94.691,504.772,502.426,0.0
53291.0,STARLINK-4166,PAYLOAD,2022-10-29 12:00:00,15.19322656,0.0001530999999999,53.2171,288.101,45.9831,260.2606,-0.058384,-0.01150912,0.0,0 STARLINK-4166,1 53291U 22086BB  22302.50001157 -.01150912  00000-0 -58384-1 0  9996,2 53291  53.2171 288.1010 0001531  45.9831 260.2606 15.19322656  1307,6886.023,94.779,508.943,506.834,0.0
53291.0,STARLINK-4166,PAYLOAD,2022-10-29 22:00:01,15.18307635,0.0001908,53.2171,286.1999,31.4251,34.3444,-0.060309,-0.01154073,0.0,0 STARLINK-4166,1 53291U 22086BB  22302.91668981 -.01154073  00000-0 -60309-1 0  9997,2 53291  53.2171 286.1999 0001908  31.4251  34.3444 15.18307635  1304,6889.092,94.842,512.2719999999998,509.643,0.0
53291.0,STARLINK-4166,PAYLOAD,2022-10-30 00:00:00,15.18099034,0.0002032999999999,53.2175,285.8205,36.2018,125.2159,-0.0602269999999999,-0.01146229,0.0,0 STARLINK-4166,1 53291U 22086BB  22303.00001157 -.01146229  00000-0 -60227-1 0  9997,2 53291  53.2175 285.8205 0002033  36.2018 125.2159 15.18099034 15903,6889.723000000001,94.855,512.989,510.187,0.0
53291.0,STARLINK-4166,PAYLOAD,2022-10-30 14:00:01,15.1667967,0.0001948,53.2168,283.1682,35.8176,73.8506,-0.063175,-0.01153446,0.0,0 STARLINK-4166,1 53291U 22086BB  22303.58334491 -.01153446  00000-0 -63175-1 0  9994,2 53291  53.2168 283.1682 0001948  35.8176  73.8506 15.16679670  1300,6894.021,94.944,517.229,514.543,0.0
53291.0,STARLINK-4166,PAYLOAD,2022-10-30 22:00:01,15.15892567,0.0005031,53.2171,281.6534,274.82,215.4128,-0.066791,-0.01189936,0.0,0 STARLINK-4166,1 53291U 22086BB  22303.91668981 -.01189936  00000-0 -66791-1 0  9995,2 53291  53.2171 281.6534 0005031 274.8200 215.4128 15.15892567  1308,6896.406999999997,94.994,521.742,514.803,0.0
53291.0,STARLINK-4166,PAYLOAD,2022-10-31 14:00:01,15.14235414,0.0001788,53.2169,278.6328,48.0451,120.234,-0.067459,-0.01148963,0.0,0 STARLINK-4166,1 53291U 22086BB  22304.58334491 -.01148963  00000-0 -67459-1 0  9992,2 53291  53.2169 278.6328 0001788  48.0451 120.2340 15.14235414  1306,6901.438,95.097,524.5369999999998,522.069,0.0
53291.0,STARLINK-4166,PAYLOAD,2022-10-31 22:00:01,15.13428197,0.000186,53.2172,277.124,45.5427,140.3771,-0.069551,-0.0115716,0.0,0 STARLINK-4166,1 53291U 22086BB  22304.91668981 -.01157160  00000-0 -69551-1 0  9997,2 53291  53.2172 277.1240 0001860  45.5427 140.3771 15.13428197  1305,6903.892,95.148,527.0409999999998,524.472,0.0
53291.0,STARLINK-4166,PAYLOAD,2022-11-01 14:00:01,15.11795545,0.0001729,53.217,274.1145,50.1216,167.9657,-0.072387,-0.01150821,0.0,0 STARLINK-4166,1 53291U 22086BB  22305.58334491 -.01150821  00000-0 -72387-1 0  9995,2 53291  53.2170 274.1145 0001729  50.1216 167.9657 15.11795545  1306,6908.861,95.251,531.9209999999998,529.5319999999998,0.0
53291.0,STARLINK-4166,PAYLOAD,2022-11-01 22:00:00,15.10982725,0.0001792,53.2172,272.6116,47.4229,185.3107,-0.074032,-0.01150589,0.0,0 STARLINK-4166,1 53291U 22086BB  22305.91667824 -.01150589  00000-0 -74032-1 0  9991,2 53291  53.2172 272.6116 0001792  47.4229 185.3107 15.10982725  1303,6911.339,95.302,534.442,531.965,0.0
